{
  "norad_id": 52550,
  "name": "STARLINK-3965",
  "history": [
    {
      "epoch": "2026-03-28T06:42:19.246752Z",
      "apogee_km": 540.8015157791397,
      "perigee_km": 538.6943280319265,
      "latitude_deg": 3.593367389373169e-05,
      "longitude_deg": 119.38331744374413,
      "height_km": 540.6834738719567,
      "semi_major_axis_km": 6917.884921905533,
      "eccentricity": 0.0001523,
      "inclination_deg": 53.2186,
      "raan_deg": 45.6656,
      "arg_perigee_deg": 92.1731,
      "mean_anomaly_deg": 267.9436,
      "mean_motion_rev_day": 15.08838517
    },
    {
      "epoch": "2026-03-29T03:22:19.841952Z",
      "apogee_km": 540.7978695875972,
      "perigee_km": 538.689299585415,
      "latitude_deg": -1.3648336956804456e-05,
      "longitude_deg": 164.6661437397776,
      "height_km": 540.7296920334024,
      "semi_major_axis_km": 6917.880584586506,
      "eccentricity": 0.0001524,
      "inclination_deg": 53.219,
      "raan_deg": 41.7997,
      "arg_perigee_deg": 94.9217,
      "mean_anomaly_deg": 265.1949,
      "mean_motion_rev_day": 15.08839936
    },
    {
      "epoch": "2026-03-30T01:37:43.692384Z",
      "apogee_km": 540.743768412297,
      "perigee_km": 538.7504492851731,
      "latitude_deg": -4.437943376790289e-06,
      "longitude_deg": -174.26047281187894,
      "height_km": 540.690661454336,
      "semi_major_axis_km": 6917.884108848735,
      "eccentricity": 0.00014407,
      "inclination_deg": 53.2182,
      "raan_deg": 37.6365,
      "arg_perigee_deg": 92.7531,
      "mean_anomaly_deg": 267.3626,
      "mean_motion_rev_day": 15.08838783
    }
  ]
}